[{"OBJECT_NAME":"STARLINK-34931","OBJECT_ID":"2025-191V","EPOCH":"2026-03-09T14:29:29.520960","MEAN_MOTION":15.05652052,"ECCENTRICITY":0.00018,"INCLINATION":97.6023,"RA_OF_ASC_NODE":301.3987,"ARG_OF_PERICENTER":83.481,"MEAN_ANOMALY":276.6621,"EPHEMERIS_TYPE":0,"CLASSIFICATION_TYPE":"U","NORAD_CAT_ID":65398,"ELEMENT_SET_NO":999,"REV_AT_EPOCH":3025,"BSTAR":0.00032075,"MEAN_MOTION_DOT":4.571e-5,"MEAN_MOTION_DDOT":0},{"OBJECT_NAME":"CZ-6A DEB","OBJECT_ID":"2022-151AEC","EPOCH":"2026-03-09T16:07:43.414464","MEAN_MOTION":15.01082395,"ECCENTRICITY":0.0040922,"INCLINATION":98.632,"RA_OF_ASC_NODE":144.2747,"ARG_OF_PERICENTER":190.1613,"MEAN_ANOMALY":169.8786,"EPHEMERIS_TYPE":0,"CLASSIFICATION_TYPE":"U","NORAD_CAT_ID":56604,"ELEMENT_SET_NO":999,"REV_AT_EPOCH":16341,"BSTAR":0.005850488,"MEAN_MOTION_DOT":0.00076879,"MEAN_MOTION_DDOT":0}]
